{
"type": "FeatureCollection",
"name": "train",
"crs": { "type": "name", "properties": { "name": "urn:ogc:def:crs:OGC:1.3:CRS84" } },
"features": [
{ "type": "Feature", "properties": { "id": "parcel_1777666032243_cm5hf", "name": "Parcelle 2", "area_ha": 2104.0940821600525, "systeme": "extensif", "zone": 19 }, "geometry": { "type": "Polygon", "coordinates": [ [ [ 10.367789268493654, 34.971430000724041 ], [ 10.368819236755373, 34.973047641991222 ], [ 10.375771522521974, 34.9732234706388 ], [ 10.386972427368166, 34.984194431602802 ], [ 10.411691665649416, 35.000472347213417 ], [ 10.408945083618166, 35.006202246786415 ], [ 10.406284332275392, 35.008030105778388 ], [ 10.380191802978517, 35.021491731983112 ], [ 10.373282432556154, 35.019347861543686 ], [ 10.370793342590334, 35.003776755457032 ], [ 10.361266136169435, 35.00890886960201 ], [ 10.350794792175295, 35.015270838084589 ], [ 10.344185829162599, 35.000788732503061 ], [ 10.348520278930666, 34.997941220856561 ], [ 10.344486236572267, 34.992984204957644 ], [ 10.33967971801758, 34.995023297493361 ], [ 10.333242416381838, 34.987358858734595 ], [ 10.367789268493654, 34.971430000724041 ] ] ] } },
{ "type": "Feature", "properties": { "id": "parcel_1777666069829_t5ehp", "name": "Parcelle 3", "area_ha": 2988.3899150365041, "systeme": "extensif", "zone": 17 }, "geometry": { "type": "Polygon", "coordinates": [ [ [ 10.333542823791506, 34.987464337532508 ], [ 10.285391807556152, 35.008873719230337 ], [ 10.256080627441406, 35.0196993195663 ], [ 10.289511680603029, 35.052308048289092 ], [ 10.305776596069338, 35.043419243288433 ], [ 10.302429199218752, 35.039448832122403 ], [ 10.319595336914064, 35.031120882896523 ], [ 10.322771072387697, 35.03463488902387 ], [ 10.333628654479982, 35.028766414264616 ], [ 10.343112945556642, 35.023705834248837 ], [ 10.351781845092775, 35.01709849442701 ], [ 10.333542823791506, 34.987464337532508 ] ] ] } },
{ "type": "Feature", "properties": { "id": "parcel_1777666096636_lo0y0", "name": "Parcelle 4", "area_ha": 369.51433020285361, "systeme": "extensif", "zone": 12 }, "geometry": { "type": "Polygon", "coordinates": [ [ [ 10.403752326965334, 35.119838365766029 ], [ 10.435638427734377, 35.108288781750801 ], [ 10.431947708129885, 35.100670075071228 ], [ 10.412979125976564, 35.106533382520382 ], [ 10.40010452270508, 35.112010103077161 ], [ 10.390748977661135, 35.1150993728142 ], [ 10.392765998840334, 35.119031001263075 ], [ 10.403752326965334, 35.119838365766029 ] ] ] } },
{ "type": "Feature", "properties": { "id": "parcel_1777666127269_tb54q", "name": "Parcelle 5", "area_ha": 555.09807495967311, "systeme": "extensif", "zone": 12 }, "geometry": { "type": "Polygon", "coordinates": [ [ [ 10.386843681335451, 35.092032339035605 ], [ 10.386199951171877, 35.091400273642272 ], [ 10.400619506835939, 35.064813977512472 ], [ 10.402379035949709, 35.061898440531564 ], [ 10.405640602111818, 35.064076321369214 ], [ 10.40958881378174, 35.067518659674207 ], [ 10.415039062500002, 35.072541403058693 ], [ 10.412807464599611, 35.07436777855785 ], [ 10.412850379943849, 35.075597046743567 ], [ 10.409717559814455, 35.077563837321748 ], [ 10.412936210632326, 35.083288332922834 ], [ 10.419459342956545, 35.087888710026263 ], [ 10.417356491088869, 35.089468932364404 ], [ 10.409717559814455, 35.090487281647555 ], [ 10.405769348144533, 35.093331569181274 ], [ 10.386843681335451, 35.092032339035605 ] ] ] } },
{ "type": "Feature", "properties": { "id": "parcel_1777666340373_juajr", "name": "Parcelle 13", "area_ha": 303.20435155336753, "systeme": "extensif", "zone": 6 }, "geometry": { "type": "Polygon", "coordinates": [ [ [ 10.492715835571291, 35.031033030807485 ], [ 10.498809814453127, 35.038904203153123 ], [ 10.502092838287355, 35.04308545508831 ], [ 10.507392883300783, 35.048970468127834 ], [ 10.50846576690674, 35.048461036000603 ], [ 10.507006645202638, 35.04673948323255 ], [ 10.509109497070314, 35.045790857018886 ], [ 10.512049198150635, 35.043753030124776 ], [ 10.516598224639894, 35.048847502043209 ], [ 10.520160198211672, 35.044912489591091 ], [ 10.519151687622072, 35.043507082061808 ], [ 10.52069664001465, 35.042488146484338 ], [ 10.521812438964846, 35.043278701054597 ], [ 10.524988174438478, 35.039554243761657 ], [ 10.519731044769289, 35.035267394080748 ], [ 10.517048835754396, 35.034213216266266 ], [ 10.505311489105226, 35.032596783872911 ], [ 10.492715835571291, 35.031033030807485 ] ] ] } },
{ "type": "Feature", "properties": { "id": "parcel_1777666373384_lm2rb", "name": "Parcelle 14", "area_ha": 802.56495608946943, "systeme": "extensif", "zone": 6 }, "geometry": { "type": "Polygon", "coordinates": [ [ [ 10.492630004882814, 35.030769473973841 ], [ 10.482652187347414, 35.019172131965888 ], [ 10.484712123870851, 35.014480012583562 ], [ 10.489304065704347, 35.010771817686901 ], [ 10.496771335601808, 35.004145856602392 ], [ 10.500161647796633, 35.005727699793283 ], [ 10.504024028778076, 35.008856144038816 ], [ 10.506727695465088, 35.011351783429937 ], [ 10.510504245758058, 35.014181254293007 ], [ 10.520009994506838, 35.022264917365405 ], [ 10.520181655883791, 35.025217012476787 ], [ 10.516147613525392, 35.027536440995853 ], [ 10.517177581787111, 35.029644955268225 ], [ 10.523271560668945, 35.02620102049196 ], [ 10.528421401977539, 35.028801556086073 ], [ 10.531597137451172, 35.032456223023445 ], [ 10.525159835815431, 35.039624518112277 ], [ 10.518808364868166, 35.03449433167976 ], [ 10.492630004882814, 35.030769473973841 ] ] ] } },
{ "type": "Feature", "properties": { "id": "parcel_1777666392195_gp8ab", "name": "Parcelle 15", "area_ha": 59.062119667142341, "systeme": "extensif", "zone": 14 }, "geometry": { "type": "Polygon", "coordinates": [ [ [ 10.435380935668947, 35.053361992635281 ], [ 10.427505970001222, 35.046230037191002 ], [ 10.428256988525392, 35.045351674485573 ], [ 10.435702800750734, 35.044701680003044 ], [ 10.440101623535158, 35.044385464600992 ], [ 10.439393520355226, 35.04550978046958 ], [ 10.437440872192385, 35.05012985353865 ], [ 10.435380935668947, 35.053361992635281 ] ] ] } },
{ "type": "Feature", "properties": { "id": "parcel_1777666410382_4ozey", "name": "Parcelle 16", "area_ha": 104.69984177156394, "systeme": "extensif", "zone": 14 }, "geometry": { "type": "Polygon", "coordinates": [ [ [ 10.441195964813234, 35.05016498617298 ], [ 10.44904947280884, 35.043489514314686 ], [ 10.453255176544191, 35.04691515354466 ], [ 10.452353954315187, 35.048355635853454 ], [ 10.453855991363527, 35.049725827157687 ], [ 10.456817150115969, 35.051939164554561 ], [ 10.455143451690676, 35.05601435904989 ], [ 10.444843769073488, 35.053379558259159 ], [ 10.441195964813234, 35.05016498617298 ] ] ] } },
{ "type": "Feature", "properties": { "id": "parcel_1777666449437_wci0q", "name": "Parcelle 17", "area_ha": 253.93769471090249, "systeme": "extensif", "zone": 14 }, "geometry": { "type": "Polygon", "coordinates": [ [ [ 10.444586277008058, 35.044034112718663 ], [ 10.450444221496584, 35.043348972201741 ], [ 10.453855991363527, 35.042382738630302 ], [ 10.455701351165773, 35.040748899502098 ], [ 10.450723171234133, 35.037059465156439 ], [ 10.451323986053469, 35.03607558786257 ], [ 10.448577404022219, 35.034265925479964 ], [ 10.447354316711428, 35.03530253310705 ], [ 10.443341732025148, 35.032561643683209 ], [ 10.44231176376343, 35.03349285360536 ], [ 10.441496372222902, 35.032948184938959 ], [ 10.441989898681642, 35.031138453302987 ], [ 10.438599586486818, 35.031876406964081 ], [ 10.436089038848879, 35.032315661932238 ], [ 10.434393882751467, 35.032526503478394 ], [ 10.43256998062134, 35.032280521621644 ], [ 10.429952144622805, 35.035179546448944 ], [ 10.430960655212404, 35.035935032996441 ], [ 10.424845218658449, 35.041311084394522 ], [ 10.425188541412355, 35.042294898648059 ], [ 10.429437160491945, 35.045193568195565 ], [ 10.438084602355959, 35.038746084385295 ], [ 10.43905019760132, 35.039360988985791 ], [ 10.436840057373049, 35.040889446087846 ], [ 10.438449382781984, 35.041785424888587 ], [ 10.436282157897949, 35.043665191615872 ], [ 10.437440872192385, 35.044490869870998 ], [ 10.44055223464966, 35.044420599706108 ], [ 10.442419052124025, 35.044455734796109 ], [ 10.444586277008058, 35.044034112718663 ] ] ] } },
{ "type": "Feature", "properties": { "id": "parcel_1777666529889_rdkq2", "name": "Parcelle 20", "area_ha": 1078.2700727821218, "systeme": "extensif", "zone": 17 }, "geometry": { "type": "Polygon", "coordinates": [ [ [ 10.285778045654299, 34.975860855058976 ], [ 10.306034088134767, 35.000402039205142 ], [ 10.272130966186523, 35.013618882785387 ], [ 10.247411727905275, 34.983456047673045 ], [ 10.255050659179689, 34.982541848819849 ], [ 10.262174606323244, 34.989011344287967 ], [ 10.274105072021486, 34.984229592576206 ], [ 10.282516479492188, 34.980502445365197 ], [ 10.279083251953127, 34.97783004671269 ], [ 10.285778045654299, 34.975860855058976 ] ] ] } },
{ "type": "Feature", "properties": { "id": "parcel_1777666572107_7pdad", "name": "Parcelle 21", "area_ha": 1443.2951926499438, "systeme": "extensif", "zone": 20 }, "geometry": { "type": "Polygon", "coordinates": [ [ [ 10.148534774780275, 35.05480236124469 ], [ 10.174970626831056, 35.054661838596282 ], [ 10.193080902099611, 35.039273145754755 ], [ 10.185356140136721, 35.029504389342186 ], [ 10.166215896606447, 35.027677010306149 ], [ 10.14716148376465, 35.028239285129949 ], [ 10.131111145019533, 35.032245381295972 ], [ 10.124588012695314, 35.046862452490686 ], [ 10.148534774780275, 35.05480236124469 ] ] ] } },
{ "type": "Feature", "properties": { "id": "parcel_1777666591451_o64cz", "name": "Parcelle 22", "area_ha": 790.8698653056623, "systeme": "extensif", "zone": 4 }, "geometry": { "type": "Polygon", "coordinates": [ [ [ 10.15840530395508, 35.055013144763869 ], [ 10.149564743041994, 35.055223927738972 ], [ 10.124673843383791, 35.047143524385589 ], [ 10.106992721557619, 35.06505986141228 ], [ 10.117635726928713, 35.069907135634168 ], [ 10.128364562988283, 35.074332656337596 ], [ 10.135316848754885, 35.076510205407828 ], [ 10.15840530395508, 35.055013144763869 ] ] ] } },
{ "type": "Feature", "properties": { "id": "parcel_1777666608727_pm8wx", "name": "Parcelle 23", "area_ha": 367.63711614930213, "systeme": "extensif", "zone": 20 }, "geometry": { "type": "Polygon", "coordinates": [ [ [ 10.124416351318361, 35.033299584494074 ], [ 10.145788192749025, 35.028169000988484 ], [ 10.143899917602541, 35.0207888298361 ], [ 10.140981674194338, 35.021140281664948 ], [ 10.138492584228517, 35.012845615648331 ], [ 10.120296478271486, 35.014603030385992 ], [ 10.121841430664064, 35.025006152075406 ], [ 10.124416351318361, 35.033299584494074 ] ] ] } },
{ "type": "Feature", "properties": { "id": "parcel_1777662049508_exj14", "name": "Parcelle 1", "area_ha": 74.011799957453334, "systeme": "intensif", "zone": 5 }, "geometry": { "type": "Polygon", "coordinates": [ [ [ 10.015368461608888, 36.448489547245707 ], [ 10.008716583251955, 36.450905960670269 ], [ 10.008158683776857, 36.450250084469168 ], [ 10.008373260498049, 36.44938708101877 ], [ 10.007557868957521, 36.449973924409612 ], [ 10.0070858001709, 36.449525162216027 ], [ 10.006871223449707, 36.448938315430283 ], [ 10.00678539276123, 36.4481098182926 ], [ 10.006313323974611, 36.447626524209504 ], [ 10.006527900695803, 36.447212269741946 ], [ 10.005369186401369, 36.447039663060941 ], [ 10.004725456237795, 36.446590883893094 ], [ 10.003952980041506, 36.44596949306726 ], [ 10.003566741943361, 36.444968352934957 ], [ 10.002622604370119, 36.442344614057738 ], [ 10.002965927124025, 36.441688665475631 ], [ 10.002751350402834, 36.44120533139322 ], [ 10.002880096435549, 36.440238654196691 ], [ 10.002579689025881, 36.437269498941745 ], [ 10.002751350402834, 36.436889715075239 ], [ 10.015368461608888, 36.448489547245707 ] ] ] } },
{ "type": "Feature", "properties": { "id": "parcel_1777662108262_dhxlg", "name": "Parcelle 2", "area_ha": 370.10213776960774, "systeme": "intensif", "zone": 5 }, "geometry": { "type": "Polygon", "coordinates": [ [ [ 10.004811286926271, 36.448489547245707 ], [ 10.000519752502443, 36.45100951956352 ], [ 10.00185012817383, 36.452562886371354 ], [ 9.999918937683107, 36.453978149046364 ], [ 9.997644424438478, 36.452873555999972 ], [ 9.991035461425781, 36.457015698810714 ], [ 9.987816810607912, 36.458016683465772 ], [ 9.987730979919435, 36.458776042516554 ], [ 9.987044334411623, 36.459397330754662 ], [ 9.985713958740234, 36.459190235228355 ], [ 9.985928535461428, 36.460398284668315 ], [ 9.985198974609377, 36.461882433930207 ], [ 9.98537063598633, 36.46319398405204 ], [ 9.987516403198244, 36.46291787008056 ], [ 9.988288879394531, 36.462434668264464 ], [ 9.989705085754396, 36.462538211764262 ], [ 9.991250038146974, 36.461916948691339 ], [ 9.991936683654787, 36.461433740637588 ], [ 9.993138313293459, 36.461261165602927 ], [ 9.989275932312013, 36.464298430105131 ], [ 9.989876747131349, 36.466507275013022 ], [ 9.99107837677002, 36.466576300402338 ], [ 9.992537498474123, 36.46540286042552 ], [ 9.997043609619142, 36.469199219656772 ], [ 9.998545646667482, 36.468025819381673 ], [ 10.002622604370119, 36.471407924931725 ], [ 10.004081726074219, 36.470441624117861 ], [ 10.008416175842287, 36.473547548150663 ], [ 10.008974075317385, 36.472650293991741 ], [ 10.008158683776857, 36.471304393277862 ], [ 10.008416175842287, 36.470717711293887 ], [ 10.009918212890627, 36.47216715283465 ], [ 10.009918212890627, 36.473305980745067 ], [ 10.012021064758301, 36.472374213699325 ], [ 10.013308525085451, 36.471304393277862 ], [ 10.013008117675783, 36.470269069133494 ], [ 10.013222694396974, 36.469199219656772 ], [ 10.011892318725588, 36.468198379359585 ], [ 10.013051033020021, 36.465092240988085 ], [ 10.011935234069826, 36.464747106820241 ], [ 10.011420249938967, 36.464194888955966 ], [ 10.011806488037111, 36.463332040669059 ], [ 10.010905265808107, 36.462952384380763 ], [ 10.009789466857912, 36.462400153733782 ], [ 10.010948181152346, 36.461123105298633 ], [ 10.010132789611818, 36.459155719253523 ], [ 10.009961128234865, 36.457567967804337 ], [ 10.010218620300295, 36.456636011596203 ], [ 10.008888244628908, 36.456152770634759 ], [ 10.009016990661623, 36.455151761921726 ], [ 10.008201599121096, 36.454150740288853 ], [ 10.008716583251955, 36.453253261633989 ], [ 10.007386207580568, 36.450319124330413 ], [ 10.004811286926271, 36.448489547245707 ] ] ] } },
{ "type": "Feature", "properties": { "id": "parcel_1777662148660_qey6r", "name": "Parcelle 3", "area_ha": 140.24199355289807, "systeme": "intensif", "zone": 5 }, "geometry": { "type": "Polygon", "coordinates": [ [ [ 10.022020339965822, 36.453943630751795 ], [ 10.022192001342775, 36.456705045773468 ], [ 10.022921562194824, 36.45667052869252 ], [ 10.023221969604494, 36.458776042516554 ], [ 10.022277832031252, 36.459466362473869 ], [ 10.023307800292971, 36.46277981272609 ], [ 10.023951530456545, 36.463953292403559 ], [ 10.024724006652834, 36.464678079802297 ], [ 10.023307800292971, 36.466369224049963 ], [ 10.02206325531006, 36.466438249562231 ], [ 10.021591186523439, 36.467577161641422 ], [ 10.021762847900392, 36.468129355414518 ], [ 10.01931667327881, 36.468267403243203 ], [ 10.019059181213381, 36.466748863606817 ], [ 10.017600059509277, 36.467232038535847 ], [ 10.016870498657228, 36.468267403243203 ], [ 10.016698837280275, 36.469958469193628 ], [ 10.017042160034181, 36.470579667828794 ], [ 10.018415451049806, 36.471166350857601 ], [ 10.017127990722658, 36.4718910708213 ], [ 10.015153884887697, 36.470579667828794 ], [ 10.014209747314455, 36.469992980359507 ], [ 10.013909339904787, 36.468992150310626 ], [ 10.013136863708498, 36.468301915161959 ], [ 10.012879371643068, 36.467370087962443 ], [ 10.01408100128174, 36.465747991674178 ], [ 10.013222694396974, 36.464194888955966 ], [ 10.012664794921877, 36.462986898665619 ], [ 10.011720657348635, 36.460363769231201 ], [ 10.011162757873537, 36.458637977787646 ], [ 10.010690689086916, 36.457429900924637 ], [ 10.022020339965822, 36.453943630751795 ] ] ] } },
{ "type": "Feature", "properties": { "id": "parcel_1777662294718_3mzv8", "name": "Parcelle 4", "area_ha": 189.62078452448955, "systeme": "intensif", "zone": 7 }, "geometry": { "type": "Polygon", "coordinates": [ [ [ 10.122742652893068, 35.587404657850172 ], [ 10.130789279937746, 35.567160105126717 ], [ 10.132205486297609, 35.569656046317796 ], [ 10.133321285247805, 35.571226878529295 ], [ 10.135574340820314, 35.572710414004561 ], [ 10.134265422821047, 35.576061357727973 ], [ 10.136497020721437, 35.577352829863372 ], [ 10.13718366622925, 35.575921737871489 ], [ 10.137805938720705, 35.576951428592061 ], [ 10.138771533966066, 35.579150384794268 ], [ 10.135810375213625, 35.58620059914135 ], [ 10.134501457214357, 35.58963822605606 ], [ 10.132913589477541, 35.592918666388023 ], [ 10.131154060363771, 35.59192407899755 ], [ 10.136325359344484, 35.577893845785383 ], [ 10.134887695312502, 35.577509899378498 ], [ 10.129566192626955, 35.591051623744363 ], [ 10.122742652893068, 35.587404657850172 ] ] ] } },
{ "type": "Feature", "properties": { "id": "parcel_1777662316778_yiudt", "name": "Parcelle 5", "area_ha": 38.674542158888968, "systeme": "intensif", "zone": 7 }, "geometry": { "type": "Polygon", "coordinates": [ [ [ 10.124137401580812, 35.588608698452447 ], [ 10.129866600036623, 35.591592547121394 ], [ 10.126626491546633, 35.596879444450046 ], [ 10.121326446533205, 35.594122624064411 ], [ 10.124137401580812, 35.588608698452447 ] ] ] } },
{ "type": "Feature", "properties": { "id": "parcel_1777662650200_lx0g1", "name": "Parcelle 12", "area_ha": 402.06179939179646, "systeme": "intensif", "zone": 3 }, "geometry": { "type": "Polygon", "coordinates": [ [ [ 8.830819129943849, 34.66840555708022 ], [ 8.829660415649416, 34.669958569206614 ], [ 8.828201293945314, 34.672640976121784 ], [ 8.825798034667971, 34.674052734344656 ], [ 8.82730007171631, 34.675429175443895 ], [ 8.827857971191408, 34.675111537220559 ], [ 8.829488754272463, 34.676735008674463 ], [ 8.830947875976564, 34.675358589277344 ], [ 8.833007812500002, 34.673840972145214 ], [ 8.834681510925295, 34.672005677071084 ], [ 8.836269378662111, 34.673770384625094 ], [ 8.834595680236818, 34.675711519508639 ], [ 8.835325241088869, 34.676240912035652 ], [ 8.836827278137209, 34.674899777728228 ], [ 8.837342262268068, 34.675958569775688 ], [ 8.83755683898926, 34.67680559366795 ], [ 8.836998939514162, 34.677793777259886 ], [ 8.837943077087404, 34.678358448304067 ], [ 8.839144706726076, 34.677758485191781 ], [ 8.839702606201174, 34.678781949060436 ], [ 8.83854389190674, 34.679593652789791 ], [ 8.840003013610842, 34.680970001799125 ], [ 8.840732574462892, 34.681746393712153 ], [ 8.841590881347658, 34.681640522516311 ], [ 8.84377956390381, 34.679064281694799 ], [ 8.841848373413088, 34.676382082804672 ], [ 8.839230537414553, 34.673876265882733 ], [ 8.839659690856935, 34.67327627029983 ], [ 8.840517997741701, 34.673170388275189 ], [ 8.842706680297853, 34.675393882368141 ], [ 8.844637870788576, 34.673417446122109 ], [ 8.842577934265138, 34.671652731048582 ], [ 8.843264579772951, 34.670205636633291 ], [ 8.844809532165529, 34.670170341331726 ], [ 8.84678363800049, 34.670982129462615 ], [ 8.846011161804201, 34.672464504652027 ], [ 8.847126960754396, 34.674158615241339 ], [ 8.847384452819826, 34.675217416763701 ], [ 8.848843574523928, 34.674193908843499 ], [ 8.850345611572267, 34.673099800183586 ], [ 8.85103225708008, 34.674405670140551 ], [ 8.851375579833986, 34.676064448235969 ], [ 8.851375579833986, 34.678040821315463 ], [ 8.851804733276369, 34.678993698626464 ], [ 8.856439590454103, 34.674052734344656 ], [ 8.855581283569338, 34.673523327830935 ], [ 8.853263854980471, 34.671476257473373 ], [ 8.855195045471193, 34.665687715803934 ], [ 8.854465484619142, 34.665017065930378 ], [ 8.852148056030275, 34.665228850687434 ], [ 8.850989341735842, 34.664169921488629 ], [ 8.851075172424318, 34.663181575359431 ], [ 8.851547241210939, 34.662369710791133 ], [ 8.852233886718752, 34.661840229613205 ], [ 8.853650093078615, 34.661981424924782 ], [ 8.854894638061525, 34.660428263264883 ], [ 8.856310844421388, 34.657392454148251 ], [ 8.855924606323244, 34.656121617312621 ], [ 8.854422569274904, 34.65470955352982 ], [ 8.853693008422853, 34.653791699170533 ], [ 8.852190971374513, 34.654356533825244 ], [ 8.850259780883791, 34.652697321073852 ], [ 8.847556114196779, 34.653968210413588 ], [ 8.845968246459963, 34.654285929703896 ], [ 8.844423294067385, 34.656192219870285 ], [ 8.842449188232424, 34.655168476897977 ], [ 8.842964172363283, 34.656898242138816 ], [ 8.845152854919435, 34.658063165732962 ], [ 8.844552040100099, 34.658733871889638 ], [ 8.841805458068849, 34.660463562716821 ], [ 8.840432167053224, 34.662616800849641 ], [ 8.839359283447267, 34.663922836061566 ], [ 8.837857246398928, 34.664769983029593 ], [ 8.836655616760256, 34.663852240089945 ], [ 8.835282325744631, 34.665546526807972 ], [ 8.835582733154299, 34.666323063308177 ], [ 8.834252357482912, 34.66717018573479 ], [ 8.830175399780275, 34.664769983029593 ], [ 8.828716278076174, 34.665758310211665 ], [ 8.830819129943849, 34.66840555708022 ] ] ] } },
{ "type": "Feature", "properties": { "id": "parcel_1777662715410_fr6g1", "name": "Parcelle 15", "area_ha": 128.78852899505316, "systeme": "intensif", "zone": 22 }, "geometry": { "type": "Polygon", "coordinates": [ [ [ 8.832106590270998, 34.626392598674961 ], [ 8.834252357482912, 34.626216028729651 ], [ 8.833522796630861, 34.626992933678387 ], [ 8.839402198791506, 34.62868797377061 ], [ 8.840775489807131, 34.62540380214169 ], [ 8.844251632690431, 34.628476095652879 ], [ 8.844680786132814, 34.628334843273805 ], [ 8.848972320556642, 34.632431064629024 ], [ 8.850688934326174, 34.630488915924538 ], [ 8.844337463378908, 34.624768141005141 ], [ 8.846697807312013, 34.622366710543297 ], [ 8.843607902526857, 34.619612042967617 ], [ 8.843135833740236, 34.620706857696135 ], [ 8.841419219970705, 34.620318376703693 ], [ 8.839702606201174, 34.623461488931966 ], [ 8.836269378662111, 34.622578604261854 ], [ 8.836698532104494, 34.621766342069265 ], [ 8.835196495056154, 34.621060020656735 ], [ 8.833909034729006, 34.620000527266356 ], [ 8.834338188171388, 34.619011654565476 ], [ 8.830733299255373, 34.616892601960238 ], [ 8.829360008239748, 34.617175145433443 ], [ 8.82931709289551, 34.618587848372549 ], [ 8.829488754272463, 34.619435458594324 ], [ 8.827214241027834, 34.621695710198516 ], [ 8.832106590270998, 34.626392598674961 ] ] ] } },
{ "type": "Feature", "properties": { "id": "parcel_1777662875975_5jz1b", "name": "Parcelle 16", "area_ha": 105.91107426235152, "systeme": "intensif", "zone": 21 }, "geometry": { "type": "Polygon", "coordinates": [ [ [ 9.692258834838869, 34.224045138081848 ], [ 9.700927734375002, 34.208643534956082 ], [ 9.697065353393556, 34.207756260081887 ], [ 9.690885543823244, 34.218899754362162 ], [ 9.68998432159424, 34.218544888728069 ], [ 9.696335792541506, 34.207330364824443 ], [ 9.694104194641113, 34.20697545046599 ], [ 9.686164855957031, 34.220567602820289 ], [ 9.692258834838869, 34.224045138081848 ] ] ] } },
{ "type": "Feature", "properties": { "id": "parcel_1777662889381_5q9ie", "name": "Parcelle 17", "area_ha": 16.810050217460006, "systeme": "intensif", "zone": 10 }, "geometry": { "type": "Polygon", "coordinates": [ [ [ 9.656510353088381, 34.20697545046599 ], [ 9.649944305419924, 34.201509580625753 ], [ 9.647455215454103, 34.202929321150648 ], [ 9.655351638793947, 34.207543312722173 ], [ 9.656939506530762, 34.206868975867017 ], [ 9.656510353088381, 34.20697545046599 ] ] ] } },
{ "type": "Feature", "properties": { "id": "parcel_1777666827849_immef", "name": "Parcelle 19", "area_ha": 615.62739590809315, "systeme": "intensif", "zone": 23 }, "geometry": { "type": "Polygon", "coordinates": [ [ [ 8.775758743286135, 34.69032151100285 ], [ 8.775758743286135, 34.685310644976376 ], [ 8.778076171875002, 34.685310644976376 ], [ 8.797988891601564, 34.657992564769138 ], [ 8.776016235351564, 34.654956666428426 ], [ 8.773441314697267, 34.658769172063323 ], [ 8.772325515747072, 34.66286389017133 ], [ 8.771038055419924, 34.66928795390546 ], [ 8.770179748535158, 34.674299789559704 ], [ 8.766918182373049, 34.680228893636773 ], [ 8.765115737915041, 34.682981547661377 ], [ 8.761854171752931, 34.684957755655383 ], [ 8.760910034179689, 34.687921979202159 ], [ 8.760995864868166, 34.689827495435772 ], [ 8.775758743286135, 34.69032151100285 ] ] ] } },
{ "type": "Feature", "properties": { "id": "parcel_1777666990655_5k85g", "name": "Parcelle 20", "area_ha": 84.433661133713827, "systeme": "intensif", "zone": 15 }, "geometry": { "type": "Polygon", "coordinates": [ [ [ 10.046331882476808, 35.55349213970868 ], [ 10.046406984329225, 35.555168030951357 ], [ 10.046374797821047, 35.556992268571449 ], [ 10.047072172164919, 35.558371329742883 ], [ 10.047254562377931, 35.5594972544976 ], [ 10.047351121902466, 35.560300229931656 ], [ 10.04779100418091, 35.56093736775842 ], [ 10.043617486953737, 35.562456004619357 ], [ 10.040613412857057, 35.556966083636134 ], [ 10.03530263900757, 35.558799008450563 ], [ 10.035109519958498, 35.557812725545006 ], [ 10.036160945892336, 35.554923632327274 ], [ 10.036579370498657, 35.55469669008054 ], [ 10.036858320236208, 35.555255315993669 ], [ 10.036611557006838, 35.555892493923317 ], [ 10.037169456481935, 35.556032148683258 ], [ 10.03755569458008, 35.555360057918996 ], [ 10.037974119186401, 35.555080745814003 ], [ 10.037748813629152, 35.554783975636099 ], [ 10.036869049072267, 35.554155517514943 ], [ 10.03655791282654, 35.554007130850685 ], [ 10.036987066268923, 35.552863671460152 ], [ 10.039079189300539, 35.55378891466902 ], [ 10.040860176086428, 35.552008248427455 ], [ 10.044164657592775, 35.548019063354694 ], [ 10.045301914215088, 35.550122794004025 ], [ 10.045988559722902, 35.552776383813779 ], [ 10.046331882476808, 35.55349213970868 ] ] ] } },
{ "type": "Feature", "properties": { "id": "parcel_1777667281825_3deuj", "name": "Parcelle 24", "area_ha": 72.880691555299478, "systeme": "intensif", "zone": 2 }, "geometry": { "type": "Polygon", "coordinates": [ [ [ 9.374084472656252, 36.549655512045362 ], [ 9.374352693557741, 36.54630268159773 ], [ 9.374674558639528, 36.546190630768081 ], [ 9.374910593032839, 36.545423509187323 ], [ 9.375189542770388, 36.545027016397384 ], [ 9.375822544097902, 36.545276979480121 ], [ 9.376766681671144, 36.545544180502333 ], [ 9.377753734588625, 36.545673470987971 ], [ 9.378687143325807, 36.545630374183467 ], [ 9.379352331161501, 36.54508735238791 ], [ 9.380017518997194, 36.544742574664902 ], [ 9.380789995193483, 36.545380412243439 ], [ 9.3813693523407, 36.545690709703038 ], [ 9.381798505783083, 36.54562175481967 ], [ 9.382925033569338, 36.54453570729298 ], [ 9.384201765060427, 36.543768569289398 ], [ 9.384480714797975, 36.545432128573204 ], [ 9.385499954223635, 36.545552799874784 ], [ 9.386304616928102, 36.545673470987971 ], [ 9.387592077255251, 36.545751045175564 ], [ 9.388740062713625, 36.5460613411474 ], [ 9.389823675155641, 36.54631130088557 ], [ 9.39060688018799, 36.547164605626413 ], [ 9.39110040664673, 36.547457657606813 ], [ 9.391293525695803, 36.548354045002888 ], [ 9.391454458236696, 36.548836710833484 ], [ 9.392119646072389, 36.549517609290781 ], [ 9.391561746597292, 36.550457066934868 ], [ 9.390306472778322, 36.5505777303919 ], [ 9.386701583862306, 36.550474304583105 ], [ 9.384512901306154, 36.550155407468132 ], [ 9.384759664535524, 36.549172851327903 ], [ 9.383836984634401, 36.548965995812026 ], [ 9.382528066635134, 36.548716044658399 ], [ 9.3823778629303, 36.549638274214509 ], [ 9.37912702560425, 36.549440038883212 ], [ 9.376605749130251, 36.549422801004297 ], [ 9.374084472656252, 36.549655512045362 ] ] ] } },
{ "type": "Feature", "properties": { "id": "parcel_1777667302238_zjnhu", "name": "Parcelle 25", "area_ha": 18.077181996645837, "systeme": "intensif", "zone": 2 }, "geometry": { "type": "Polygon", "coordinates": [ [ [ 9.3708872795105, 36.551215519821042 ], [ 9.370951652526857, 36.552560031645001 ], [ 9.376734495162966, 36.552499701487491 ], [ 9.377989768981935, 36.549655512045362 ], [ 9.376294612884523, 36.549603798541227 ], [ 9.375844001770021, 36.549707225514894 ], [ 9.375554323196413, 36.550431210455287 ], [ 9.374921321868898, 36.550629443244375 ], [ 9.374459981918337, 36.550413972797429 ], [ 9.374095201492311, 36.550008886730879 ], [ 9.373033046722414, 36.549733082236678 ], [ 9.372260570526125, 36.54919870822846 ], [ 9.371477365493776, 36.548491949833476 ], [ 9.371048212051393, 36.548440235550842 ], [ 9.371005296707155, 36.548922900843216 ], [ 9.371434450149538, 36.549086661596888 ], [ 9.37163829803467, 36.549448657821245 ], [ 9.3713915348053, 36.549698606605709 ], [ 9.370930194854738, 36.549655512045362 ], [ 9.370726346969606, 36.549681368784455 ], [ 9.3708872795105, 36.551215519821042 ] ] ] } },
{ "type": "Feature", "properties": { "id": "parcel_1777667330430_52762", "name": "Parcelle 26", "area_ha": 45.633484593938114, "systeme": "intensif", "zone": 2 }, "geometry": { "type": "Polygon", "coordinates": [ [ [ 9.355416297912599, 36.549052185677581 ], [ 9.355083703994753, 36.545819999943618 ], [ 9.356456995010378, 36.544751194126704 ], [ 9.357358217239382, 36.542984184358467 ], [ 9.357808828353884, 36.541708464396713 ], [ 9.358302354812624, 36.54080338003719 ], [ 9.358956813812258, 36.541027497151291 ], [ 9.358881711959841, 36.541889479997153 ], [ 9.359525442123415, 36.542467003127349 ], [ 9.360201358795168, 36.542535960824743 ], [ 9.360308647155763, 36.543449644508357 ], [ 9.360995292663576, 36.544389175902936 ], [ 9.361349344253542, 36.545009777534304 ], [ 9.361531734466555, 36.545294218283615 ], [ 9.36189651489258, 36.54499253866738 ], [ 9.362529516220095, 36.544940822043529 ], [ 9.363023042678835, 36.545449367342115 ], [ 9.364171028137209, 36.546182011466747 ], [ 9.364449977874758, 36.546862933309626 ], [ 9.364525079727175, 36.547630040605689 ], [ 9.364514350891115, 36.549026328728019 ], [ 9.359503984451296, 36.548940138833629 ], [ 9.356628656387331, 36.548940138833629 ], [ 9.355416297912599, 36.549052185677581 ] ] ] } }
]
}
