{
  "type": "FeatureCollection",
  "features": [
    {
      "type": "Feature",
      "properties": {
        "job_id": "demo_1777743512_470714",
        "status": "queued",
        "created_at": "2026-05-02T17:38:32Z",
        "area_km2": 28.586,
        "area_ha": 2858.55,
        "centroid_lat": 35.03054533333333,
        "centroid_lng": 9.556731999999998
      },
      "geometry": {
        "type": "Polygon",
        "coordinates": [
          [
            [
              9.493561,
              35.039166
            ],
            [
              9.637756,
              35.049282
            ],
            [
              9.538879,
              35.003188
            ],
            [
              9.493561,
              35.039166
            ]
          ]
        ]
      }
    }
  ]
}