{
  "type": "FeatureCollection",
  "features": [
    {
      "type": "Feature",
      "properties": {
        "job_id": "demo_1777759743_173849",
        "status": "queued",
        "created_at": "2026-05-02T22:09:03Z",
        "area_km2": 68.604,
        "area_ha": 6860.44,
        "centroid_lat": 36.37634766666667,
        "centroid_lng": 7.552185333333334
      },
      "geometry": {
        "type": "Polygon",
        "coordinates": [
          [
            [
              7.531128,
              36.427927
            ],
            [
              7.638245,
              36.38373
            ],
            [
              7.487183,
              36.317386
            ],
            [
              7.531128,
              36.427927
            ]
          ]
        ]
      }
    }
  ]
}