{
  "type": "FeatureCollection",
  "features": [
    {
      "type": "Feature",
      "properties": {
        "job_id": "demo_1777795740_681951",
        "status": "queued",
        "created_at": "2026-05-03T08:09:00Z",
        "area_km2": 55.199,
        "area_ha": 5519.9,
        "centroid_lat": 35.815577,
        "centroid_lng": 9.402903
      },
      "geometry": {
        "type": "Polygon",
        "coordinates": [
          [
            [
              9.340669,
              35.842308
            ],
            [
              9.47795,
              35.842308
            ],
            [
              9.39009,
              35.762115
            ],
            [
              9.340669,
              35.842308
            ]
          ]
        ]
      }
    }
  ]
}