{
  "type": "FeatureCollection",
  "features": [
    {
      "type": "Feature",
      "properties": {
        "job_id": "demo_1777758092_613561",
        "status": "queued",
        "created_at": "2026-05-02T21:41:32Z",
        "area_km2": 26.752,
        "area_ha": 2675.24,
        "centroid_lat": 36.80868133333333,
        "centroid_lng": 8.954315
      },
      "geometry": {
        "type": "Polygon",
        "coordinates": [
          [
            [
              8.897552,
              36.825536
            ],
            [
              9.026642,
              36.818942
            ],
            [
              8.938751,
              36.781566
            ],
            [
              8.897552,
              36.825536
            ]
          ]
        ]
      }
    }
  ]
}