{
  "type": "FeatureCollection",
  "features": [
    {
      "type": "Feature",
      "properties": {
        "job_id": "demo_1777742534_27532",
        "status": "queued",
        "created_at": "2026-05-02T17:22:14Z",
        "area_km2": 47.118,
        "area_ha": 4711.76,
        "centroid_lat": 35.004738,
        "centroid_lng": 9.475708
      },
      "geometry": {
        "type": "Polygon",
        "coordinates": [
          [
            [
              9.40979,
              35.030228
            ],
            [
              9.566345,
              35.016737
            ],
            [
              9.450989,
              34.967249
            ],
            [
              9.40979,
              35.030228
            ]
          ]
        ]
      }
    }
  ]
}