{
  "type": "FeatureCollection",
  "features": [
    {
      "type": "Feature",
      "properties": {
        "job_id": "demo_1777744345_940869",
        "status": "queued",
        "created_at": "2026-05-02T17:52:25Z",
        "area_km2": 84.221,
        "area_ha": 8422.05,
        "centroid_lat": 35.431193,
        "centroid_lng": 8.964843666666667
      },
      "geometry": {
        "type": "Polygon",
        "coordinates": [
          [
            [
              8.85498,
              35.465499
            ],
            [
              9.074707,
              35.447607
            ],
            [
              8.964844,
              35.380473
            ],
            [
              8.85498,
              35.465499
            ]
          ]
        ]
      }
    }
  ]
}