{
  "type": "FeatureCollection",
  "features": [
    {
      "type": "Feature",
      "properties": {
        "job_id": "demo_1777757098_807388",
        "status": "queued",
        "created_at": "2026-05-02T21:24:58Z",
        "area_km2": 40.913,
        "area_ha": 4091.35,
        "centroid_lat": 36.98295433333333,
        "centroid_lng": 9.601593333333334
      },
      "geometry": {
        "type": "Polygon",
        "coordinates": [
          [
            [
              9.553986,
              37.010006
            ],
            [
              9.683075,
              36.994657
            ],
            [
              9.567719,
              36.9442
            ],
            [
              9.553986,
              37.010006
            ]
          ]
        ]
      }
    }
  ]
}