{
  "type": "FeatureCollection",
  "features": [
    {
      "type": "Feature",
      "properties": {
        "job_id": "demo_1777743661_244542",
        "status": "queued",
        "created_at": "2026-05-02T17:41:01Z",
        "area_km2": 40.003,
        "area_ha": 4000.29,
        "centroid_lat": 35.642887,
        "centroid_lng": 9.703674333333334
      },
      "geometry": {
        "type": "Polygon",
        "coordinates": [
          [
            [
              9.636383,
              35.665201
            ],
            [
              9.795685,
              35.651815
            ],
            [
              9.678955,
              35.611645
            ],
            [
              9.636383,
              35.665201
            ]
          ]
        ]
      }
    }
  ]
}