{
  "type": "FeatureCollection",
  "features": [
    {
      "type": "Feature",
      "properties": {
        "job_id": "demo_1777758729_898992",
        "status": "queued",
        "created_at": "2026-05-02T21:52:09Z",
        "area_km2": 29.626,
        "area_ha": 2962.57,
        "centroid_lat": 35.24204366666666,
        "centroid_lng": 9.835052333333335
      },
      "geometry": {
        "type": "Polygon",
        "coordinates": [
          [
            [
              9.814911,
              35.274187
            ],
            [
              9.887695,
              35.255131
            ],
            [
              9.802551,
              35.196813
            ],
            [
              9.814911,
              35.274187
            ]
          ]
        ]
      }
    }
  ]
}