{
  "type": "FeatureCollection",
  "features": [
    {
      "type": "Feature",
      "properties": {
        "job_id": "demo_1777753131_710912",
        "status": "queued",
        "created_at": "2026-05-02T20:18:51Z",
        "area_km2": 0.642,
        "area_ha": 64.16,
        "centroid_lat": 35.486405,
        "centroid_lng": 10.017585666666667
      },
      "geometry": {
        "type": "Polygon",
        "coordinates": [
          [
            [
              10.009918,
              35.489619
            ],
            [
              10.023136,
              35.489619
            ],
            [
              10.019703,
              35.479977
            ],
            [
              10.009918,
              35.489619
            ]
          ]
        ]
      }
    }
  ]
}