{
  "type": "FeatureCollection",
  "features": [
    {
      "type": "Feature",
      "properties": {
        "job_id": "demo_1777744874_57340",
        "status": "queued",
        "created_at": "2026-05-02T18:01:14Z",
        "area_km2": 20.884,
        "area_ha": 2088.35,
        "centroid_lat": 35.338368333333335,
        "centroid_lng": 9.985198666666667
      },
      "geometry": {
        "type": "Polygon",
        "coordinates": [
          [
            [
              9.953613,
              35.362261
            ],
            [
              10.029144,
              35.348824
            ],
            [
              9.972839,
              35.30402
            ],
            [
              9.953613,
              35.362261
            ]
          ]
        ]
      }
    }
  ]
}